ALSAT 1                 
1 27559U 02054A   09191.07676162  .00000011  00000-0  10146-4 0  5190
2 27559  97.9392  65.3047 0022194 285.2310  74.6466 14.69324072353083
NIGERIASAT 1            
1 27941U 03042C   09191.12594938  .00000003  00000-0  93224-5 0  5931
2 27941  97.9410  65.0144 0012769  67.4804 292.7760 14.63023597308890
UK-DMC                  
1 27942U 03042D   09191.09009018  .00000066  00000-0  21769-4 0  5852
2 27942  97.9408  64.7327 0012474  75.0905 285.1714 14.63020943308883
BILSAT 1                
1 27943U 03042E   09191.07357922 -.00000003  00000-0  82820-5 0  4331
2 27943  97.9399  64.4730 0012900  65.2611 294.9944 14.62910190308870
BEIJING 1               
1 28890U 05043A   09191.11010030 -.00000010  00000-0  74785-5 0  3122
2 28890  98.0497  81.0323 0014300 275.5056  84.4526 14.60063391197257
HJ-1A                   
1 33320U 08041A   09191.12292157  .00000045  00000-0  14280-4 0  9373
2 33320  97.9818 266.4010 0025263  10.8534 349.3227 14.75156089 45277
HJ-1B                   
1 33321U 08041B   09191.15640210  .00000034  00000-0  12683-4 0  9647
2 33321  97.9832 266.4183 0043743  21.4533 338.8478 14.75161033 45260
YAOGAN 4                
1 33446U 08061A   09191.14981890 -.00000254  00000-0 -29811-4 0  6833
2 33446  97.9034 271.6008 0013053 319.2936  40.7311 14.75689176 32581
YAOGAN 5                
1 33456U 08064A   09191.22789005  .00000483  00000-0  22308-4 0  6656
2 33456  97.3749 265.9505 0004399 308.9976 135.6764 15.24855159 31563
